From: horizons@ssd.jpl.nasa.gov (Horizons Ephemeris System)
Subject: [Horizons] SMALL BODY #C(500@399)_T(15P/Finlay) (1/1)
Date: January 29, 2021 at 11:55:15 AM PST

Automated mail xmit by PORT_LOGIN, PID= 21169 Fri Jan 29 11:55:15 2021
++++++++++++++++++++++++++++++++ (part 1 of 1)  +++++++++++++++++++++++++++++++
*******************************************************************************
Ephemeris / PORT_LOGIN Fri Jan 29 11:55:03 2021 Pasadena, USA    / Horizons
*******************************************************************************
Target body name: 15P/Finlay                      {source: JPL#K142/2}
Center body name: Earth (399)                     {source: DE431}
Center-site name: BODY CENTER
*******************************************************************************
Start time      : A.D. 2034-Feb-13 15:48:23.0000 TDB
Stop  time      : A.D. 2035-Feb-13 15:48:23.0000 TDB
Step-size       : 10080 minutes
*******************************************************************************
Center geodetic : 0.00000000,0.00000000,0.0000000 {E-lon(deg),Lat(deg),Alt(km)}
Center cylindric: 0.00000000,0.00000000,0.0000000 {E-lon(deg),Dxy(km),Dz(km)}
Center radii    : 6378.1 x 6378.1 x 6356.8 km     {Equator, meridian, pole}    
Small perturbers: Yes                             {source: SB431-N16}
Output units    : AU-D
Output type     : GEOMETRIC cartesian states
Output format   : 6 (LT, range, and range-rate)
EOP file        : eop.210128.p210421
EOP coverage    : DATA-BASED 1962-JAN-20 TO 2021-JAN-28. PREDICTS-> 2021-APR-20
Reference frame : Ecliptic of J2000.0
*******************************************************************************
Initial IAU76/J2000 heliocentric ecliptic osculating elements (au, days, deg.):
 EPOCH=  2456406.5 ! 2013-Apr-24.0000000 (TDB)    RMSW= n.a.                  
  EC= .7204670323736734   QR= .9746503145016036   TP= 2457018.4345876598      
  OM= 13.80063967391148   W= 347.5656143942961    IN= 6.803655945058429       
 Equivalent ICRF heliocentric equatorial cartesian coordinates (au, au/d):
  X=-4.516275540209837E+00  Y=-1.844032150859829E+00  Z=-9.192225686715535E-01
 VX= 5.288555874917156E-03 VY=-2.108342330164854E-03 VZ=-1.392349478769353E-03
Comet physical (GM= km^3/s^2; RAD= km):                                        
  GM= n.a.                RAD= n.a.                                           
  M1=  10.3     M2=  15.1     k1=  19.    k2=  5.      PHCOF=  .030           
Comet non-gravitational force model (AMRAT=m^2/kg;A1-A3=au/d^2;DT=days;R0=au): 
  AMRAT=  0.                                      DT=  0.                     
  A1= 7.829547673464E-10  A2= 2.826333418489E-10  A3= 1.812163442373E-9       
Standard model:                                                               
  ALN=  .1112620426   NK=  4.6142   NM=  2.15     NN=  5.093    R0=  2.808    
*******************************************************************************
           JDTDB,            Calendar Date (TDB),                     LT,                     RG,                     RR,
**************************************************************************************************************************
$$SOE
2464007.158599537, A.D. 2034-Feb-13 15:48:23.0000,  1.691266895824345E-02,  2.928337854316089E+00, -2.027215179212393E-02,
2464014.158599537, A.D. 2034-Feb-20 15:48:23.0000,  1.608577644747010E-02,  2.785165854277158E+00, -2.061501228075413E-02,
2464021.158599537, A.D. 2034-Feb-27 15:48:23.0000,  1.524743488740167E-02,  2.640011512803559E+00, -2.083831369770834E-02,
2464028.158599537, A.D. 2034-Mar-06 15:48:23.0000,  1.440222232287448E-02,  2.493667493786847E+00, -2.095894865539719E-02,
2464035.158599537, A.D. 2034-Mar-13 15:48:23.0000,  1.355397364589934E-02,  2.346797788195575E+00, -2.098824086329114E-02,
2464042.158599537, A.D. 2034-Mar-20 15:48:23.0000,  1.270652273351045E-02,  2.200066211260551E+00, -2.091658939313816E-02,
2464049.158599537, A.D. 2034-Mar-27 15:48:23.0000,  1.186429879163450E-02,  2.054239656214989E+00, -2.072974805213940E-02,
2464056.158599537, A.D. 2034-Apr-03 15:48:23.0000,  1.103164561833058E-02,  1.910070228378242E+00, -2.044758202307993E-02,
2464063.158599537, A.D. 2034-Apr-10 15:48:23.0000,  1.021205172951763E-02,  1.768161945557670E+00, -2.008402791794520E-02,
2464070.158599537, A.D. 2034-Apr-17 15:48:23.0000,  9.408878712707585E-03,  1.629096848588234E+00, -1.963285305660179E-02,
2464077.158599537, A.D. 2034-Apr-24 15:48:23.0000,  8.625971501147694E-03,  1.493540667024683E+00, -1.908171430538831E-02,
2464084.158599537, A.D. 2034-May-01 15:48:23.0000,  7.867022130053093E-03,  1.362132656948163E+00, -1.845256658012096E-02,
2464091.158599537, A.D. 2034-May-08 15:48:23.0000,  7.134769772718919E-03,  1.235347091512691E+00, -1.776183930004174E-02,
2464098.158599537, A.D. 2034-May-15 15:48:23.0000,  6.431715000644833E-03,  1.113616931252051E+00, -1.700623908062690E-02,
2464105.158599537, A.D. 2034-May-22 15:48:23.0000,  5.760729684893009E-03,  9.974394252263923E-01, -1.617579764536918E-02,
2464112.158599537, A.D. 2034-May-29 15:48:23.0000,  5.124464821077726E-03,  8.872735790975694E-01, -1.529391003000383E-02,
2464119.158599537, A.D. 2034-Jun-05 15:48:23.0000,  4.524540916339627E-03,  7.833999749791957E-01, -1.437921236460366E-02,
2464126.158599537, A.D. 2034-Jun-12 15:48:23.0000,  3.962258941349659E-03,  6.860438689602110E-01, -1.342993632578613E-02,
2464133.158599537, A.D. 2034-Jun-19 15:48:23.0000,  3.439265665132486E-03,  5.954903902584913E-01, -1.243544707975647E-02,
2464140.158599537, A.D. 2034-Jun-26 15:48:23.0000,  2.957147090579098E-03,  5.120141467620165E-01, -1.141134463413913E-02,
2464147.158599537, A.D. 2034-Jul-03 15:48:23.0000,  2.516918659019658E-03,  4.357909566869002E-01, -1.036075293054971E-02,
2464154.158599537, A.D. 2034-Jul-10 15:48:23.0000,  2.120195019955856E-03,  3.671003879280105E-01, -9.249915653729764E-03,
2464161.158599537, A.D. 2034-Jul-17 15:48:23.0000,  1.770808576906732E-03,  3.066060005849105E-01, -8.004083372283968E-03,
2464168.158599537, A.D. 2034-Jul-24 15:48:23.0000,  1.476203732096171E-03,  2.555967529461342E-01, -6.518405379909812E-03,
2464175.158599537, A.D. 2034-Jul-31 15:48:23.0000,  1.249110876430680E-03,  2.162768438689885E-01, -4.635824356046395E-03,
2464182.158599537, A.D. 2034-Aug-07 15:48:23.0000,  1.108212748166448E-03,  1.918810892061900E-01, -2.257376252071415E-03,
2464189.158599537, A.D. 2034-Aug-14 15:48:23.0000,  1.070126212044915E-03,  1.852866098995931E-01,  3.680976539569134E-04,
2464196.158599537, A.D. 2034-Aug-21 15:48:23.0000,  1.133077836207119E-03,  1.961863457414046E-01,  2.640037726648230E-03,
2464203.158599537, A.D. 2034-Aug-28 15:48:23.0000,  1.273439078214140E-03,  2.204891414304103E-01,  4.174757723452977E-03,
2464210.158599537, A.D. 2034-Sep-04 15:48:23.0000,  1.461118788372874E-03,  2.529848759062524E-01,  5.007451192665369E-03,
2464217.158599537, A.D. 2034-Sep-11 15:48:23.0000,  1.671474134533682E-03,  2.894067750483282E-01,  5.330365967724919E-03,
2464224.158599537, A.D. 2034-Sep-18 15:48:23.0000,  1.887589760531919E-03,  3.268260357269563E-01,  5.314665274962604E-03,
2464231.158599537, A.D. 2034-Sep-25 15:48:23.0000,  2.098056887010063E-03,  3.632672890310176E-01,  5.064401715497701E-03,
2464238.158599537, A.D. 2034-Oct-02 15:48:23.0000,  2.294830915736070E-03,  3.973376559546124E-01,  4.647351073677105E-03,
2464245.158599537, A.D. 2034-Oct-09 15:48:23.0000,  2.472631418483949E-03,  4.281228586921892E-01,  4.142033133051708E-03,
2464252.158599537, A.D. 2034-Oct-16 15:48:23.0000,  2.629806208824385E-03,  4.553368300313348E-01,  3.640248376883171E-03,
2464259.158599537, A.D. 2034-Oct-23 15:48:23.0000,  2.767934372151672E-03,  4.792529801326053E-01,  3.209386467937196E-03,
2464266.158599537, A.D. 2034-Oct-30 15:48:23.0000,  2.890938530103157E-03,  5.005504898785194E-01,  2.899981340092629E-03,
2464273.158599537, A.D. 2034-Nov-06 15:48:23.0000,  3.004978515691434E-03,  5.202959012933773E-01,  2.780973013879823E-03,
2464280.158599537, A.D. 2034-Nov-13 15:48:23.0000,  3.119439877859101E-03,  5.401142718012911E-01,  2.930469894101909E-03,
2464287.158599537, A.D. 2034-Nov-20 15:48:23.0000,  3.246051911058694E-03,  5.620364657817737E-01,  3.384602165648275E-03,
2464294.158599537, A.D. 2034-Nov-27 15:48:23.0000,  3.397173739513439E-03,  5.882023992586299E-01,  4.140191447528953E-03,
2464301.158599537, A.D. 2034-Dec-04 15:48:23.0000,  3.584792808710432E-03,  6.206876340774260E-01,  5.189939878742642E-03,
2464308.158599537, A.D. 2034-Dec-11 15:48:23.0000,  3.820387930199409E-03,  6.614796648474780E-01,  6.502639640596002E-03,
2464315.158599537, A.D. 2034-Dec-18 15:48:23.0000,  4.112958879219929E-03,  7.121367543467898E-01,  7.991339772208041E-03,
2464322.158599537, A.D. 2034-Dec-25 15:48:23.0000,  4.467513328783380E-03,  7.735259542794712E-01,  9.553595002926239E-03,
2464329.158599537, A.D. 2035-Jan-01 15:48:23.0000,  4.885599809491888E-03,  8.459153844078114E-01,  1.112799368114651E-02,
2464336.158599537, A.D. 2035-Jan-08 15:48:23.0000,  5.366804961521368E-03,  9.292334736969080E-01,  1.266607648122508E-02,
2464343.158599537, A.D. 2035-Jan-15 15:48:23.0000,  5.908471358896245E-03,  1.023020103102360E+00,  1.411018537370194E-02,
2464350.158599537, A.D. 2035-Jan-22 15:48:23.0000,  6.505904775252444E-03,  1.126462492524671E+00,  1.542191788566380E-02,
2464357.158599537, A.D. 2035-Jan-29 15:48:23.0000,  7.153759816736665E-03,  1.238635115708611E+00,  1.660785511894594E-02,
2464364.158599537, A.D. 2035-Feb-05 15:48:23.0000,  7.847109372357063E-03,  1.358684869831353E+00,  1.767011538893212E-02,
2464371.158599537, A.D. 2035-Feb-12 15:48:23.0000,  8.580617020838304E-03,  1.485687782191383E+00,  1.859142452165270E-02,
$$EOE
**************************************************************************************************************************
Coordinate system description:

 Ecliptic at the standard reference epoch

   Reference epoch: J2000.0
   X-Y plane: adopted Earth orbital plane at the reference epoch
              Note: obliquity of 84381.448 arcseconds (IAU76) wrt ICRF equator
   X-axis   : ICRF
   Z-axis   : perpendicular to the X-Y plane in the directional (+ or -) sense
              of Earth's north pole at the reference epoch.

 Symbol meaning [1 au= 149597870.700 km, 1 day= 86400.0 s]:

   JDTDB    Julian Day Number, Barycentric Dynamical Time
     LT     One-way down-leg Newtonian light-time (day)
     RG     Range; distance from coordinate center (au)
     RR     Range-rate; radial velocity wrt coord. center (au/day)

Geometric states/elements have no aberrations applied.


Computations by ...
    Solar System Dynamics Group, Horizons On-Line Ephemeris System
    4800 Oak Grove Drive, Jet Propulsion Laboratory
    Pasadena, CA  91109   USA
    Information  : https://ssd.jpl.nasa.gov/
    Documentation: https://ssd.jpl.nasa.gov/?horizons_doc
    Connect      : https://ssd.jpl.nasa.gov/?horizons (browser)
                   telnet ssd.jpl.nasa.gov 6775       (command-line)
                   e-mail command interface available
                   Script and CGI interfaces available
    Author       : Jon.D.Giorgini@jpl.nasa.gov
*******************************************************************************
